GLOBALSTAR M057 [-]     
1 25943U 99058A   24047.81296523 -.00000061  00000+0  29076-3 0  9991
2 25943  51.9982 288.4768 0003375  81.6300 278.4932 12.24779733107332
GLOBALSTAR M059 [-]     
1 25944U 99058B   24048.03813565 -.00000021  00000+0  80662-3 0  9992
2 25944  52.0015  82.3367 0000747 124.1450 248.1859 11.99963235104430
GLOBALSTAR M056 [-]     
1 25945U 99058C   24048.40269645 -.00000107  00000+0 -23329-3 0  9991
2 25945  51.9961  95.7883 0000624 265.4289 107.1345 12.04773534104110
GLOBALSTAR M031 [-]     
1 25946U 99058D   24047.96051737  .00000043  00000+0  13521-2 0  9992
2 25946  51.9988  18.4155 0001218 276.6254 117.8215 12.16003534105394
GLOBALSTAR M039 [-]     
1 25961U 99062A   24048.46553096 -.00000043  00000+0  33928-3 0  9990
2 25961  51.9859 308.0772 0003052   4.7773 355.3122 12.62282318118902
GLOBALSTAR M034 [-]     
1 25962U 99062B   24047.64991311 -.00000056  00000+0  40182-3 0  9990
2 25962  51.9847 196.0750 0014029 198.3400 174.9698 11.79424533 80987
GLOBALSTAR M029 [-]     
1 25963U 99062C   24048.11961163 -.00000055  00000+0  38437-3 0  9995
2 25963  51.9833 330.5718 0002034 245.3272 223.7132 11.99873714110829
GLOBALSTAR M061 [-]     
1 25964U 99062D   24047.90984199 -.00000075  00000+0  80607-4 0  9995
2 25964  51.9824  12.9910 0006095 128.8940 245.4142 11.76758625 63932
